{"type": "FeatureCollection", "features": [ {"type": "Feature", "properties": {"norad_id": 33905, "name": "COSMOS 2251 DEB", "group": "cosmos-2251-debris", "lat": 23.93547945109354, "lon": 126.05443155701298, "alt_km": 744.3289297316796, "timestamp": "2025-12-14T11:29:50.453253+00:00", "meta": {"OBJECT_NAME": "COSMOS 2251 DEB", "OBJECT_ID": "1993-036DJ", "EPOCH": "2025-12-13T08:34:18.585120", "MEAN_MOTION": 14.35391491, "ECCENTRICITY": 0.0058854, "INCLINATION": 73.8875, "RA_OF_ASC_NODE": 315.5017, "ARG_OF_PERICENTER": 204.9063, "MEAN_ANOMALY": 275.5009, "EPHEMERIS_TYPE": 0, "CLASSIFICATION_TYPE": "U", "NORAD_CAT_ID": 33905, "ELEMENT_SET_NO": 999, "REV_AT_EPOCH": 87696, "BSTAR": 0.0010795714, "MEAN_MOTION_DOT": 3.134e-05, "MEAN_MOTION_DDOT": 0}, "tle": {"line1": "1 33905U 93036DJ  25347.35715955  .00003134  00000+0  10796-2 0  9997", "line2": "2 33905  73.8875 315.5017 0058854 204.9063 275.5009 14.35391491876960"}}, "geometry": {"type": "Point", "coordinates": [126.05443155701298, 23.93547945109354]}}, {"type": "Feature", "properties": {"norad_id": 33906, "name": "COSMOS 2251 DEB", "group": "cosmos-2251-debris", "lat": 3.6809548108114676, "lon": 137.11413524866464, "alt_km": 730.1591334202221, "timestamp": "2025-12-14T11:29:50.453263+00:00", "meta": {"OBJECT_NAME": "COSMOS 2251 DEB", "OBJECT_ID": "1993-036DK", "EPOCH": "2025-12-13T08:52:49.924128", "MEAN_MOTION": 14.57114605, "ECCENTRICITY": 0.00366377, "INCLINATION": 74.0306, "RA_OF_ASC_NODE": 320.2761, "ARG_OF_PERICENTER": 349.5742, "MEAN_ANOMALY": 131.2969, "EPHEMERIS_TYPE": 0, "CLASSIFICATION_TYPE": "U", "NORAD_CAT_ID": 33906, "ELEMENT_SET_NO": 999, "REV_AT_EPOCH": 88017, "BSTAR": 0.0035702709, "MEAN_MOTION_DOT": 0.0001625, "MEAN_MOTION_DDOT": 0}, "tle": {"line1": "1 33906U 93036DK  25347.37002227  .00016250  00000+0  35703-2 0  9999", "line2": "2 33906  74.0306 320.2761 0036637 349.5742 131.2969 14.57114605880172"}}, "geometry": {"type": "Point", "coordinates": [137.11413524866464, 3.6809548108114676]}}, {"type": "Feature", "properties": {"norad_id": 33907, "name": "COSMOS 2251 DEB", "group": "cosmos-2251-debris", "lat": -18.28140115034172, "lon": 25.079003147642066, "alt_km": 813.8098224308715, "timestamp": "2025-12-14T11:29:50.453274+00:00", "meta": {"OBJECT_NAME": "COSMOS 2251 DEB", "OBJECT_ID": "1993-036DL", "EPOCH": "2025-12-13T14:28:37.140096", "MEAN_MOTION": 14.30517202, "ECCENTRICITY": 0.01120783, "INCLINATION": 74.0707, "RA_OF_ASC_NODE": 32.0828, "ARG_OF_PERICENTER": 87.3193, "MEAN_ANOMALY": 66.2951, "EPHEMERIS_TYPE": 0, "CLASSIFICATION_TYPE": "U", "NORAD_CAT_ID": 33907, "ELEMENT_SET_NO": 999, "REV_AT_EPOCH": 86592, "BSTAR": 0.0019227114, "MEAN_MOTION_DOT": 5.345e-05, "MEAN_MOTION_DDOT": 0}, "tle": {"line1": "1 33907U 93036DL  25347.60320764  .00005345  00000+0  19227-2 0  9991", "line2": "2 33907  74.0707  32.0828 0112078  87.3193  66.2951 14.30517202865926"}}, "geometry": {"type": "Point", "coordinates": [25.079003147642066, -18.28140115034172]}}, {"type": "Feature", "properties": {"norad_id": 33908, "name": "COSMOS 2251 DEB", "group": "cosmos-2251-debris", "lat": -44.992222464931096, "lon": 39.53274801254864, "alt_km": 713.1821220592119, "timestamp": "2025-12-14T11:29:50.453283+00:00", "meta": {"OBJECT_NAME": "COSMOS 2251 DEB", "OBJECT_ID": "1993-036DM", "EPOCH": "2025-12-13T15:38:45.916512", "MEAN_MOTION": 14.07350798, "ECCENTRICITY": 0.02230241, "INCLINATION": 73.8379, "RA_OF_ASC_NODE": 204.1471, "ARG_OF_PERICENTER": 227.5118, "MEAN_ANOMALY": 130.6986, "EPHEMERIS_TYPE": 0, "CLASSIFICATION_TYPE": "U", "NORAD_CAT_ID": 33908, "ELEMENT_SET_NO": 999, "REV_AT_EPOCH": 85486, "BSTAR": 0.0023881861, "MEAN_MOTION_DOT": 5.011e-05, "MEAN_MOTION_DDOT": 0}, "tle": {"line1": "1 33908U 93036DM  25347.65192033  .00005011  00000+0  23882-2 0  9995", "line2": "2 33908  73.8379 204.1471 0223024 227.5118 130.6986 14.07350798854868"}}, "geometry": {"type": "Point", "coordinates": [39.53274801254864, -44.992222464931096]}}, {"type": "Feature", "properties": {"norad_id": 33911, "name": "COSMOS 2251 DEB", "group": "cosmos-2251-debris", "lat": 55.065414318006034, "lon": -177.4320633899247, "alt_km": 632.1885442557877, "timestamp": "2025-12-14T11:29:50.453294+00:00", "meta": {"OBJECT_NAME": "COSMOS 2251 DEB", "OBJECT_ID": "1993-036DQ", "EPOCH": "2025-12-13T12:41:52.809216", "MEAN_MOTION": 14.74880436, "ECCENTRICITY": 0.00139817, "INCLINATION": 74.0909, "RA_OF_ASC_NODE": 160.3172, "ARG_OF_PERICENTER": 99.4166, "MEAN_ANOMALY": 317.3321, "EPHEMERIS_TYPE": 0, "CLASSIFICATION_TYPE": "U", "NORAD_CAT_ID": 33911, "ELEMENT_SET_NO": 999, "REV_AT_EPOCH": 88656, "BSTAR": 0.0025882298, "MEAN_MOTION_DOT": 0.00017405, "MEAN_MOTION_DDOT": 0}, "tle": {"line1": "1 33911U 93036DQ  25347.52908344  .00017405  00000+0  25882-2 0  9997", "line2": "2 33911  74.0909 160.3172 0013981  99.4166 317.3321 14.74880436886563"}}, "geometry": {"type": "Point", "coordinates": [-177.4320633899247, 55.065414318006034]}}, {"type": "Feature", "properties": {"norad_id": 33912, "name": "COSMOS 2251 DEB", "group": "cosmos-2251-debris", "lat": 17.59144974390473, "lon": 1.2411927850437399, "alt_km": 721.40769226044, "timestamp": "2025-12-14T11:29:50.453304+00:00", "meta": {"OBJECT_NAME": "COSMOS 2251 DEB", "OBJECT_ID": "1993-036DR", "EPOCH": "2025-12-13T15:10:17.882688", "MEAN_MOTION": 14.51901977, "ECCENTRICITY": 0.0011448, "INCLINATION": 74.0336, "RA_OF_ASC_NODE": 188.044, "ARG_OF_PERICENTER": 266.9508, "MEAN_ANOMALY": 149.902, "EPHEMERIS_TYPE": 0, "CLASSIFICATION_TYPE": "U", "NORAD_CAT_ID": 33912, "ELEMENT_SET_NO": 999, "REV_AT_EPOCH": 88446, "BSTAR": 0.00093892913, "MEAN_MOTION_DOT": 3.762e-05, "MEAN_MOTION_DDOT": 0}, "tle": {"line1": "1 33912U 93036DR  25347.63215142  .00003762  00000+0  93893-3 0  9996", "line2": "2 33912  74.0336 188.0440 0011448 266.9508 149.9020 14.51901977884461"}}, "geometry": {"type": "Point", "coordinates": [1.2411927850437399, 17.59144974390473]}}, {"type": "Feature", "properties": {"norad_id": 33913, "name": "COSMOS 2251 DEB", "group": "cosmos-2251-debris", "lat": -43.44990522494352, "lon": 16.123660988155716, "alt_km": 718.1099792047971, "timestamp": "2025-12-14T11:29:50.453314+00:00", "meta": {"OBJECT_NAME": "COSMOS 2251 DEB", "OBJECT_ID": "1993-036DS", "EPOCH": "2025-12-13T14:51:51.971328", "MEAN_MOTION": 14.48490998, "ECCENTRICITY": 0.00481678, "INCLINATION": 74.0334, "RA_OF_ASC_NODE": 181.9972, "ARG_OF_PERICENTER": 284.4099, "MEAN_ANOMALY": 140.4652, "EPHEMERIS_TYPE": 0, "CLASSIFICATION_TYPE": "U", "NORAD_CAT_ID": 33913, "ELEMENT_SET_NO": 999, "REV_AT_EPOCH": 88470, "BSTAR": 0.00073089408, "MEAN_MOTION_DOT": 2.755e-05, "MEAN_MOTION_DDOT": 0}, "tle": {"line1": "1 33913U 93036DS  25347.61935152  .00002755  00000+0  73089-3 0  9991", "line2": "2 33913  74.0334 181.9972 0048167 284.4099 140.4652 14.48490998884706"}}, "geometry": {"type": "Point", "coordinates": [16.123660988155716, -43.44990522494352]}}, {"type": "Feature", "properties": {"norad_id": 33914, "name": "COSMOS 2251 DEB", "group": "cosmos-2251-debris", "lat": 65.73221982013915, "lon": 51.47000972879461, "alt_km": 821.2708105851762, "timestamp": "2025-12-14T11:29:50.453324+00:00", "meta": {"OBJECT_NAME": "COSMOS 2251 DEB", "OBJECT_ID": "1993-036DT", "EPOCH": "2025-12-13T12:56:53.327904", "MEAN_MOTION": 13.71985759, "ECCENTRICITY": 0.03011178, "INCLINATION": 74.0914, "RA_OF_ASC_NODE": 13.7769, "ARG_OF_PERICENTER": 116.621, "MEAN_ANOMALY": 358.3694, "EPHEMERIS_TYPE": 0, "CLASSIFICATION_TYPE": "U", "NORAD_CAT_ID": 33914, "ELEMENT_SET_NO": 999, "REV_AT_EPOCH": 84092, "BSTAR": 0.00046234527, "MEAN_MOTION_DOT": 5.6e-06, "MEAN_MOTION_DDOT": 0}, "tle": {"line1": "1 33914U 93036DT  25347.53950611  .00000560  00000+0  46235-3 0  9995", "line2": "2 33914  74.0914  13.7769 0301117 116.6210 358.3694 13.71985759840926"}}, "geometry": {"type": "Point", "coordinates": [51.47000972879461, 65.73221982013915]}}, {"type": "Feature", "properties": {"norad_id": 33915, "name": "COSMOS 2251 DEB", "group": "cosmos-2251-debris", "lat": -48.5834062585888, "lon": -130.15417556371463, "alt_km": 803.8148603737318, "timestamp": "2025-12-14T11:29:50.453334+00:00", "meta": {"OBJECT_NAME": "COSMOS 2251 DEB", "OBJECT_ID": "1993-036DU", "EPOCH": "2025-12-13T13:22:33.030336", "MEAN_MOTION": 14.35085575, "ECCENTRICITY": 0.01043659, "INCLINATION": 74.0435, "RA_OF_ASC_NODE": 32.6089, "ARG_OF_PERICENTER": 124.9505, "MEAN_ANOMALY": 25.066, "EPHEMERIS_TYPE": 0, "CLASSIFICATION_TYPE": "U", "NORAD_CAT_ID": 33915, "ELEMENT_SET_NO": 999, "REV_AT_EPOCH": 87769, "BSTAR": 0.00052465262, "MEAN_MOTION_DOT": 1.566e-05, "MEAN_MOTION_DDOT": 0}, "tle": {"line1": "1 33915U 93036DU  25347.55732674  .00001566  00000+0  52465-3 0  9994", "line2": "2 33915  74.0435  32.6089 0104365 124.9505  25.0660 14.35085575877698"}}, "geometry": {"type": "Point", "coordinates": [-130.15417556371463, -48.5834062585888]}}, {"type": "Feature", "properties": {"norad_id": 33916, "name": "COSMOS 2251 DEB", "group": "cosmos-2251-debris", "lat": -36.34616814593952, "lon": 25.586609671094795, "alt_km": 1095.7949825370297, "timestamp": "2025-12-14T11:29:50.453344+00:00", "meta": {"OBJECT_NAME": "COSMOS 2251 DEB", "OBJECT_ID": "1993-036DV", "EPOCH": "2025-12-13T15:16:05.864736", "MEAN_MOTION": 13.6861554, "ECCENTRICITY": 0.03252983, "INCLINATION": 74.0528, "RA_OF_ASC_NODE": 39.1158, "ARG_OF_PERICENTER": 211.066, "MEAN_ANOMALY": 276.1981, "EPHEMERIS_TYPE": 0, "CLASSIFICATION_TYPE": "U", "NORAD_CAT_ID": 33916, "ELEMENT_SET_NO": 999, "REV_AT_EPOCH": 83903, "BSTAR": 0.00061729921, "MEAN_MOTION_DOT": 7.44e-06, "MEAN_MOTION_DDOT": 0}, "tle": {"line1": "1 33916U 93036DV  25347.63617899  .00000744  00000+0  61730-3 0  9997", "line2": "2 33916  74.0528  39.1158 0325298 211.0660 276.1981 13.68615540839038"}}, "geometry": {"type": "Point", "coordinates": [25.586609671094795, -36.34616814593952]}}]}